OBJECT_NAME,OBJECT_ID,EPOCH,MEAN_MOTION,ECCENTRICITY,INCLINATION,RA_OF_ASC_NODE,ARG_OF_PERICENTER,MEAN_ANOMALY,EPHEMERIS_TYPE,CLASSIFICATION_TYPE,NORAD_CAT_ID,ELEMENT_SET_NO,REV_AT_EPOCH,BSTAR,MEAN_MOTION_DOT,MEAN_MOTION_DDOT
CENTISPACE-1 GROUP 05 OBJECT J,2026-138J,2026-07-13T09:42:48.125952,14.15842380,.00095471,55.1383,184.3032,341.3483,18.7141,0,U,69636,999,370,-.51944164E-4,-.256E-5,0
VICTUS HAZE PUMA,2026-142A,2026-07-14T18:49:57.383616,15.20845903,.00250405,97.4467,93.0928,267.3590,92.4779,0,U,69646,999,386,.92001941E-4,.1975E-4,0
HOKUSHIN-1,1998-067YH,2026-07-15T03:56:15.462240,15.51003832,.00062081,51.6318,161.3891,330.3055,29.7582,0,U,69648,999,399,.27702825E-3,.15964E-3,0
STARLINK-37656,2026-143A,2026-07-15T02:05:40.748352,15.49206293,.00006993,97.2845,239.9687,91.0701,269.0631,0,U,69649,999,486,.55396471E-3,.30171E-3,0
STARLINK-37646,2026-143B,2026-07-15T01:52:31.734048,15.49201304,.0000948,97.2852,240.1363,345.7107,14.4117,0,U,69650,999,487,.85439772E-4,.4561E-4,0
STARLINK-37749,2026-143C,2026-07-15T02:02:26.132352,15.49199456,.00006043,97.2844,240.1266,140.3115,219.8181,0,U,69651,999,487,.32586849E-3,.17678E-3,0
STARLINK-37819,2026-143D,2026-07-15T08:31:09.317280,15.49207324,.00007859,97.2848,240.3726,67.4931,292.6403,0,U,69652,999,491,.61482148E-3,.33511E-3,0
STARLINK-37729,2026-143E,2026-07-15T14:00:01.999872,15.84122696,.00015344,97.2820,241.0143,178.3213,261.2931,0,U,69653,999,502,-.42656965E-2,-.864922E-2,0
STARLINK-37838,2026-143F,2026-07-15T03:09:28.788480,15.49190830,.00010691,97.2844,240.2170,55.8302,304.3051,0,U,69654,999,488,.2343302E-3,.12675E-3,0
STARLINK-37884,2026-143G,2026-07-15T13:22:13.357056,15.49215639,.00003717,97.2842,240.5558,1.3124,358.8128,0,U,69655,999,494,.51804385E-3,.28211E-3,0
STARLINK-37876,2026-143H,2026-07-15T01:37:05.356704,15.49205196,.00014642,97.2843,240.1514,91.0726,269.0693,0,U,69656,999,480,.306515E-3,.16625E-3,0
STARLINK-37784,2026-143J,2026-07-15T13:11:30.138432,15.49192280,.00017077,97.2839,240.5667,113.2323,246.9108,0,U,69657,999,487,.59295995E-3,.32296E-3,0
STARLINK-37851,2026-143K,2026-07-15T03:13:12.011520,15.49203934,.00005976,97.2847,240.2137,79.3590,280.7728,0,U,69658,999,481,.28236239E-3,.15304E-3,0
STARLINK-37229,2026-143L,2026-07-15T02:08:15.880416,15.49202261,.00008952,97.2846,240.1199,91.4928,268.6426,0,U,69659,999,481,.3167227E-3,.1718E-3,0
STARLINK-37556,2026-143M,2026-07-15T14:00:01.999872,15.41624299,.00016656,97.2845,240.6437,114.2265,165.1821,0,U,69660,999,496,-.75914703E-1,-.2837374E-1,0
STARLINK-37867,2026-143N,2026-07-15T01:40:34.427424,15.49204020,.00015014,97.2847,240.1489,80.0224,280.1196,0,U,69661,999,480,.28168305E-3,.15267E-3,0
STARLINK-37852,2026-143P,2026-07-15T13:17:23.159328,15.49221145,.00004056,97.2842,240.5603,26.7073,333.4199,0,U,69662,999,487,.60770811E-3,.33137E-3,0
STARLINK-37554,2026-143Q,2026-07-15T01:54:11.500992,15.49206058,.00010762,97.2843,240.1336,107.7041,252.4328,0,U,69663,999,481,.28915542E-3,.15676E-3,0
STARLINK-37830,2026-143R,2026-07-15T13:07:03.360288,15.49205988,.00013083,97.2833,240.5676,74.2072,285.9323,0,U,69664,999,487,.52689882E-3,.28687E-3,0
STARLINK-37837,2026-143S,2026-07-15T14:00:01.999872,15.36951419,.00009408,97.2841,240.6347,75.7972,194.1578,0,U,69665,999,492,.17564491E-2,.63845E-3,0
STARLINK-37943,2026-143T,2026-07-15T13:06:17.201088,15.49218850,.0001165,97.2849,240.5714,91.5412,268.5973,0,U,69666,999,487,.74692745E-3,.40786E-3,0
STARLINK-37941,2026-143U,2026-07-15T01:57:00.779328,15.49209516,.00008002,97.2846,240.1313,82.3411,277.7931,0,U,69667,999,480,.37910703E-3,.20596E-3,0
STARLINK-37930,2026-143V,2026-07-15T01:56:15.393408,15.49173111,.00011672,97.2842,240.1315,105.2826,254.8555,0,U,69668,999,480,.14695532E-3,.7906E-4,0
STARLINK-37945,2026-143W,2026-07-15T01:37:40.039392,15.49216260,.00011762,97.2842,240.1502,84.8601,275.2785,0,U,69669,999,480,.65062769E-3,.35489E-3,0
STARLINK-37948,2026-143X,2026-07-15T02:46:38.786880,15.49208616,.00013563,97.2866,240.0861,48.6006,311.5361,0,U,69670,999,480,.5277946E-3,.28739E-3,0
STARLINK-37949,2026-143Y,2026-07-15T13:02:35.864160,15.49215824,.00001569,97.2843,240.5744,89.9632,270.1637,0,U,69671,999,487,.55503439E-3,.3024E-3,0
STARLINK-37946,2026-143Z,2026-07-15T01:51:26.927136,15.49205965,.00008875,97.2841,240.1374,73.6959,286.4389,0,U,69672,999,480,.38228552E-3,.20768E-3,0
TJS-26A,2026-144A,2026-07-12T07:10:37.543296,1.00274367,.0004208,6.9538,323.2302,347.4913,194.6526,0,U,69674,999,19,0,-.341E-5,0
