CENTISPACE-1 GROUP 05 O*
1 69636U 26138J   26194.40472368 -.00000256  00000+0 -51944-4 0  9997
2 69636  55.1383 184.3032 0009547 341.3483  18.7141 14.15842380  3707
VICTUS HAZE PUMA        
1 69646U 26142A   26195.78469194  .00001975  00000+0  92002-4 0  9995
2 69646  97.4467  93.0928 0025040 267.3590  92.4779 15.20845903  3866
HOKUSHIN-1              
1 69648U 98067YH  26196.16406785  .00015964  00000+0  27703-3 0  9990
2 69648  51.6318 161.3891 0006208 330.3055  29.7582 15.51003832  3995
STARLINK-37656          
1 69649U 26143A   26196.08727718  .00030171  00000+0  55396-3 0  9996
2 69649  97.2845 239.9687 0000699  91.0701 269.0631 15.49206293  4863
STARLINK-37646          
1 69650U 26143B   26196.07814507  .00004561  00000+0  85440-4 0  9998
2 69650  97.2852 240.1363 0000948 345.7107  14.4117 15.49201304  4874
STARLINK-37749          
1 69651U 26143C   26196.08502468  .00017678  00000+0  32587-3 0  9996
2 69651  97.2844 240.1266 0000604 140.3115 219.8181 15.49199456  4871
STARLINK-37819          
1 69652U 26143D   26196.35496895  .00033511  00000+0  61482-3 0  9993
2 69652  97.2848 240.3726 0000785  67.4931 292.6403 15.49207324  4919
STARLINK-37729          
1 69653U 26143E   26196.58335648 -.00864922  00000+0 -42657-2 0  9999
2 69653  97.2820 241.0143 0001534 178.3213 261.2931 15.84122696  5027
STARLINK-37838          
1 69654U 26143F   26196.13158320  .00012675  00000+0  23433-3 0  9991
2 69654  97.2844 240.2170 0001069  55.8302 304.3051 15.49190830  4887
STARLINK-37884          
1 69655U 26143G   26196.55709904  .00028211  00000+0  51804-3 0  9994
2 69655  97.2842 240.5558 0000371   1.3124 358.8128 15.49215639  4943
STARLINK-37876          
1 69656U 26143H   26196.06742311  .00016625  00000+0  30651-3 0  9993
2 69656  97.2843 240.1514 0001464  91.0726 269.0693 15.49205196  4803
STARLINK-37784          
1 69657U 26143J   26196.54965438  .00032296  00000+0  59296-3 0  9992
2 69657  97.2839 240.5667 0001707 113.2323 246.9108 15.49192280  4873
STARLINK-37851          
1 69658U 26143K   26196.13416680  .00015304  00000+0  28236-3 0  9999
2 69658  97.2847 240.2137 0000597  79.3590 280.7728 15.49203934  4813
STARLINK-37229          
1 69659U 26143L   26196.08907269  .00017180  00000+0  31672-3 0  9994
2 69659  97.2846 240.1199 0000895  91.4928 268.6426 15.49202261  4813
STARLINK-37556          
1 69660U 26143M   26196.58335648 -.02837374  00000+0 -75915-1 0  9992
2 69660  97.2845 240.6437 0001665 114.2265 165.1821 15.41624299  4965
STARLINK-37867          
1 69661U 26143N   26196.06984291  .00015267  00000+0  28168-3 0  9995
2 69661  97.2847 240.1489 0001501  80.0224 280.1196 15.49204020  4804
STARLINK-37852          
1 69662U 26143P   26196.55374027  .00033137  00000+0  60771-3 0  9992
2 69662  97.2842 240.5603 0000405  26.7073 333.4199 15.49221145  4872
STARLINK-37554          
1 69663U 26143Q   26196.07929978  .00015676  00000+0  28916-3 0  9994
2 69663  97.2843 240.1336 0001076 107.7041 252.4328 15.49206058  4817
STARLINK-37830          
1 69664U 26143R   26196.54656667  .00028687  00000+0  52690-3 0  9991
2 69664  97.2833 240.5676 0001308  74.2072 285.9323 15.49205988  4871
STARLINK-37837          
1 69665U 26143S   26196.58335648  .00063845  00000+0  17564-2 0  9994
2 69665  97.2841 240.6347 0000940  75.7972 194.1578 15.36951419  4925
STARLINK-37943          
1 69666U 26143T   26196.54603242  .00040786  00000+0  74693-3 0  9995
2 69666  97.2849 240.5714 0001165  91.5412 268.5973 15.49218850  4874
STARLINK-37941          
1 69667U 26143U   26196.08125902  .00020596  00000+0  37911-3 0  9996
2 69667  97.2846 240.1313 0000800  82.3411 277.7931 15.49209516  4803
STARLINK-37930          
1 69668U 26143V   26196.08073372  .00007906  00000+0  14696-3 0  9995
2 69668  97.2842 240.1315 0001167 105.2826 254.8555 15.49173111  4803
STARLINK-37945          
1 69669U 26143W   26196.06782453  .00035489  00000+0  65063-3 0  9992
2 69669  97.2842 240.1502 0001176  84.8601 275.2785 15.49216260  4800
STARLINK-37948          
1 69670U 26143X   26196.11572670  .00028739  00000+0  52779-3 0  9998
2 69670  97.2866 240.0861 0001356  48.6006 311.5361 15.49208616  4802
STARLINK-37949          
1 69671U 26143Y   26196.54347065  .00030240  00000+0  55503-3 0  9992
2 69671  97.2843 240.5744 0000156  89.9632 270.1637 15.49215824  4875
STARLINK-37946          
1 69672U 26143Z   26196.07739499  .00020768  00000+0  38229-3 0  9997
2 69672  97.2841 240.1374 0000887  73.6959 286.4389 15.49205965  4804
TJS-26A                 
1 69674U 26144A   26193.29904564 -.00000341  00000+0  00000+0 0  9996
2 69674   6.9538 323.2302 0004208 347.4913 194.6526  1.00274367   198
